{"type": "FeatureCollection", "features": [ {"type": "Feature", "properties": {"norad_id": 66615, "name": "STARLINK-35988", "group": "last-30-days", "lat": 29.98316343500176, "lon": 146.76990161078612, "alt_km": 439.66325738013984, "timestamp": "2025-12-27T07:26:23.944078+00:00", "meta": {"OBJECT_NAME": "STARLINK-35988", "OBJECT_ID": "2025-270AD", "EPOCH": "2025-12-25T16:20:27.897216", "MEAN_MOTION": 15.40700329, "ECCENTRICITY": 0.00016951, "INCLINATION": 43.0013, "RA_OF_ASC_NODE": 117.9088, "ARG_OF_PERICENTER": 260.634, "MEAN_ANOMALY": 99.4325, "EPHEMERIS_TYPE": 0, "CLASSIFICATION_TYPE": "U", "NORAD_CAT_ID": 66615, "ELEMENT_SET_NO": 999, "REV_AT_EPOCH": 618, "BSTAR": 0.0010609961, "MEAN_MOTION_DOT": 0.00044275, "MEAN_MOTION_DDOT": 0}, "tle": {"line1": "1 66615U 25270AD  25359.68087844  .00044275  00000+0  10610-2 0  9990", "line2": "2 66615  43.0013 117.9088 0001695 260.6340  99.4325 15.40700329  6181"}}, "geometry": {"type": "Point", "coordinates": [146.76990161078612, 29.98316343500176]}}, {"type": "Feature", "properties": {"norad_id": 66616, "name": "STARLINK-35391", "group": "last-30-days", "lat": 22.130937292542047, "lon": -97.5960148622009, "alt_km": 440.64959800475117, "timestamp": "2025-12-27T07:26:23.944088+00:00", "meta": {"OBJECT_NAME": "STARLINK-35391", "OBJECT_ID": "2025-270AE", "EPOCH": "2025-12-26T16:48:18.947520", "MEAN_MOTION": 15.40717812, "ECCENTRICITY": 0.0001272, "INCLINATION": 42.9999, "RA_OF_ASC_NODE": 111.7954, "ARG_OF_PERICENTER": 264.6614, "MEAN_ANOMALY": 95.4097, "EPHEMERIS_TYPE": 0, "CLASSIFICATION_TYPE": "U", "NORAD_CAT_ID": 66616, "ELEMENT_SET_NO": 999, "REV_AT_EPOCH": 661, "BSTAR": 0.0019933461, "MEAN_MOTION_DOT": 0.00083934, "MEAN_MOTION_DDOT": 0}, "tle": {"line1": "1 66616U 25270AE  25360.70021930  .00083934  00000+0  19933-2 0  9992", "line2": "2 66616  42.9999 111.7954 0001272 264.6614  95.4097 15.40717812  6611"}}, "geometry": {"type": "Point", "coordinates": [-97.5960148622009, 22.130937292542047]}}, {"type": "Feature", "properties": {"norad_id": 66617, "name": "STARLINK-35940", "group": "last-30-days", "lat": -25.298438335154167, "lon": 97.67543567257452, "alt_km": 450.95775870464877, "timestamp": "2025-12-27T07:26:23.944099+00:00", "meta": {"OBJECT_NAME": "STARLINK-35940", "OBJECT_ID": "2025-271A", "EPOCH": "2025-12-25T15:04:28.665120", "MEAN_MOTION": 15.39616191, "ECCENTRICITY": 0.00012805, "INCLINATION": 53.1618, "RA_OF_ASC_NODE": 126.3561, "ARG_OF_PERICENTER": 93.2431, "MEAN_ANOMALY": 266.8721, "EPHEMERIS_TYPE": 0, "CLASSIFICATION_TYPE": "U", "NORAD_CAT_ID": 66617, "ELEMENT_SET_NO": 999, "REV_AT_EPOCH": 619, "BSTAR": 0.0009121657, "MEAN_MOTION_DOT": 0.00036255, "MEAN_MOTION_DDOT": 0}, "tle": {"line1": "1 66617U 25271A   25359.62810955  .00036255  00000+0  91217-3 0  9996", "line2": "2 66617  53.1618 126.3561 0001280  93.2431 266.8721 15.39616191  6199"}}, "geometry": {"type": "Point", "coordinates": [97.67543567257452, -25.298438335154167]}}, {"type": "Feature", "properties": {"norad_id": 66618, "name": "STARLINK-35970", "group": "last-30-days", "lat": -41.606007301278815, "lon": 76.01317136040838, "alt_km": 452.0228943549164, "timestamp": "2025-12-27T07:26:23.944111+00:00", "meta": {"OBJECT_NAME": "STARLINK-35970", "OBJECT_ID": "2025-271B", "EPOCH": "2025-12-26T22:00:01.999584", "MEAN_MOTION": 15.39662775, "ECCENTRICITY": 7.09e-05, "INCLINATION": 53.1598, "RA_OF_ASC_NODE": 119.6088, "ARG_OF_PERICENTER": 75.3495, "MEAN_ANOMALY": 207.4016, "EPHEMERIS_TYPE": 0, "CLASSIFICATION_TYPE": "U", "NORAD_CAT_ID": 66618, "ELEMENT_SET_NO": 999, "REV_AT_EPOCH": 609, "BSTAR": -0.0014920673, "MEAN_MOTION_DOT": -0.00059697, "MEAN_MOTION_DDOT": 0}, "tle": {"line1": "1 66618U 25271B   25360.91668981 -.00059697  00000+0 -14921-2 0  9994", "line2": "2 66618  53.1598 119.6088 0000709  75.3495 207.4016 15.39662775  6098"}}, "geometry": {"type": "Point", "coordinates": [76.01317136040838, -41.606007301278815]}}, {"type": "Feature", "properties": {"norad_id": 66619, "name": "STARLINK-35951", "group": "last-30-days", "lat": -15.391553770448052, "lon": -50.122111498692696, "alt_km": 450.14115675932044, "timestamp": "2025-12-27T07:26:23.944122+00:00", "meta": {"OBJECT_NAME": "STARLINK-35951", "OBJECT_ID": "2025-271C", "EPOCH": "2025-12-26T18:06:53.714304", "MEAN_MOTION": 15.39632334, "ECCENTRICITY": 0.00011591, "INCLINATION": 53.1592, "RA_OF_ASC_NODE": 120.5839, "ARG_OF_PERICENTER": 71.4023, "MEAN_ANOMALY": 288.7108, "EPHEMERIS_TYPE": 0, "CLASSIFICATION_TYPE": "U", "NORAD_CAT_ID": 66619, "ELEMENT_SET_NO": 999, "REV_AT_EPOCH": 637, "BSTAR": 0.0013808818, "MEAN_MOTION_DOT": 0.00055258, "MEAN_MOTION_DDOT": 0}, "tle": {"line1": "1 66619U 25271C   25360.75478836  .00055258  00000+0  13809-2 0  9996", "line2": "2 66619  53.1592 120.5839 0001159  71.4023 288.7108 15.39632334  6375"}}, "geometry": {"type": "Point", "coordinates": [-50.122111498692696, -15.391553770448052]}}, {"type": "Feature", "properties": {"norad_id": 66620, "name": "STARLINK-35936", "group": "last-30-days", "lat": 25.188516810542623, "lon": -82.57539490549951, "alt_km": 443.733062546019, "timestamp": "2025-12-27T07:26:23.944132+00:00", "meta": {"OBJECT_NAME": "STARLINK-35936", "OBJECT_ID": "2025-271D", "EPOCH": "2025-12-26T15:13:18.984000", "MEAN_MOTION": 15.39625311, "ECCENTRICITY": 0.00011899, "INCLINATION": 53.1591, "RA_OF_ASC_NODE": 121.2574, "ARG_OF_PERICENTER": 86.1076, "MEAN_ANOMALY": 274.0065, "EPHEMERIS_TYPE": 0, "CLASSIFICATION_TYPE": "U", "NORAD_CAT_ID": 66620, "ELEMENT_SET_NO": 999, "REV_AT_EPOCH": 635, "BSTAR": 0.001325608, "MEAN_MOTION_DOT": 0.00053002, "MEAN_MOTION_DDOT": 0}, "tle": {"line1": "1 66620U 25271D   25360.63424750  .00053002  00000+0  13256-2 0  9992", "line2": "2 66620  53.1591 121.2574 0001189  86.1076 274.0065 15.39625311  6359"}}, "geometry": {"type": "Point", "coordinates": [-82.57539490549951, 25.188516810542623]}}, {"type": "Feature", "properties": {"norad_id": 66621, "name": "STARLINK-35847", "group": "last-30-days", "lat": -23.847034443303762, "lon": 98.34911818377044, "alt_km": 450.6195886980486, "timestamp": "2025-12-27T07:26:23.944142+00:00", "meta": {"OBJECT_NAME": "STARLINK-35847", "OBJECT_ID": "2025-271E", "EPOCH": "2025-12-26T22:00:01.999584", "MEAN_MOTION": 15.39585547, "ECCENTRICITY": 0.00015137, "INCLINATION": 53.1596, "RA_OF_ASC_NODE": 119.5569, "ARG_OF_PERICENTER": 55.7043, "MEAN_ANOMALY": 252.8857, "EPHEMERIS_TYPE": 0, "CLASSIFICATION_TYPE": "U", "NORAD_CAT_ID": 66621, "ELEMENT_SET_NO": 999, "REV_AT_EPOCH": 609, "BSTAR": 0.00068924662, "MEAN_MOTION_DOT": 0.00027237, "MEAN_MOTION_DDOT": 0}, "tle": {"line1": "1 66621U 25271E   25360.91668981  .00027237  00000+0  68925-3 0  9995", "line2": "2 66621  53.1596 119.5569 0001513  55.7043 252.8857 15.39585547  6096"}}, "geometry": {"type": "Point", "coordinates": [98.34911818377044, -23.847034443303762]}}, {"type": "Feature", "properties": {"norad_id": 66622, "name": "STARLINK-35950", "group": "last-30-days", "lat": 49.125762413120455, "lon": 178.25382181850836, "alt_km": 439.62708052299877, "timestamp": "2025-12-27T07:26:23.944152+00:00", "meta": {"OBJECT_NAME": "STARLINK-35950", "OBJECT_ID": "2025-271F", "EPOCH": "2025-12-26T13:59:50.932032", "MEAN_MOTION": 15.39717652, "ECCENTRICITY": 7.887e-05, "INCLINATION": 53.1597, "RA_OF_ASC_NODE": 121.6494, "ARG_OF_PERICENTER": 82.1022, "MEAN_ANOMALY": 278.0073, "EPHEMERIS_TYPE": 0, "CLASSIFICATION_TYPE": "U", "NORAD_CAT_ID": 66622, "ELEMENT_SET_NO": 999, "REV_AT_EPOCH": 634, "BSTAR": 0.0011765208, "MEAN_MOTION_DOT": 0.00047103, "MEAN_MOTION_DDOT": 0}, "tle": {"line1": "1 66622U 25271F   25360.58322838  .00047103  00000+0  11765-2 0  9990", "line2": "2 66622  53.1597 121.6494 0000788  82.1022 278.0073 15.39717652  6345"}}, "geometry": {"type": "Point", "coordinates": [178.25382181850836, 49.125762413120455]}}, {"type": "Feature", "properties": {"norad_id": 66623, "name": "STARLINK-35920", "group": "last-30-days", "lat": 15.072651507208157, "lon": 129.9730256406885, "alt_km": 445.5111343291401, "timestamp": "2025-12-27T07:26:23.944164+00:00", "meta": {"OBJECT_NAME": "STARLINK-35920", "OBJECT_ID": "2025-271G", "EPOCH": "2025-12-26T14:13:16.250016", "MEAN_MOTION": 15.3965013, "ECCENTRICITY": 4.27e-05, "INCLINATION": 53.1606, "RA_OF_ASC_NODE": 121.7067, "ARG_OF_PERICENTER": 62.266, "MEAN_ANOMALY": 297.8388, "EPHEMERIS_TYPE": 0, "CLASSIFICATION_TYPE": "U", "NORAD_CAT_ID": 66623, "ELEMENT_SET_NO": 999, "REV_AT_EPOCH": 634, "BSTAR": 0.00099486, "MEAN_MOTION_DOT": 0.00039641, "MEAN_MOTION_DDOT": 0}, "tle": {"line1": "1 66623U 25271G   25360.59254919  .00039641  00000+0  99486-3 0  9991", "line2": "2 66623  53.1606 121.7067 0000427  62.2660 297.8388 15.39650130  6346"}}, "geometry": {"type": "Point", "coordinates": [129.9730256406885, 15.072651507208157]}}, {"type": "Feature", "properties": {"norad_id": 66624, "name": "STARLINK-35927", "group": "last-30-days", "lat": -34.45461271875913, "lon": -31.124059052576413, "alt_km": 451.7456860633765, "timestamp": "2025-12-27T07:26:23.944175+00:00", "meta": {"OBJECT_NAME": "STARLINK-35927", "OBJECT_ID": "2025-271H", "EPOCH": "2025-12-26T22:00:01.999584", "MEAN_MOTION": 15.39592147, "ECCENTRICITY": 6.461e-05, "INCLINATION": 53.1597, "RA_OF_ASC_NODE": 119.7725, "ARG_OF_PERICENTER": 74.2022, "MEAN_ANOMALY": 129.5449, "EPHEMERIS_TYPE": 0, "CLASSIFICATION_TYPE": "U", "NORAD_CAT_ID": 66624, "ELEMENT_SET_NO": 999, "REV_AT_EPOCH": 608, "BSTAR": 0.00057123457, "MEAN_MOTION_DOT": 0.00022496, "MEAN_MOTION_DDOT": 0}, "tle": {"line1": "1 66624U 25271H   25360.91668981  .00022496  00000+0  57123-3 0  9998", "line2": "2 66624  53.1597 119.7725 0000646  74.2022 129.5449 15.39592147  6085"}}, "geometry": {"type": "Point", "coordinates": [-31.124059052576413, -34.45461271875913]}}]}